[
    {
        "Altitude(m)": 553475.2245049791,
        "Argument of Periapsis(deg)": 0.0,
        "Eccentricity": 0.0,
        "Inclination(deg)": 53.0,
        "Latitude(deg)": 13.004407321150971,
        "Longitude(deg)": 144.9976083256482,
        "Mean Anomaly(deg)": 16.363599999999984,
        "RAAN(deg)": 235.0,
        "Satellite Name": "Starlink Shell 1 1035",
        "Satellite Number": 1035,
        "Semi-Major Axis(m)": 6931778.249405717,
        "Time(s)": 0
    },
    {
        "Altitude(m)": 553482.4760549783,
        "Argument of Periapsis(deg)": 0.00034857847951123687,
        "Eccentricity": 0.0,
        "Inclination(deg)": 53.0,
        "Latitude(deg)": 13.500348266299296,
        "Longitude(deg)": 145.3538575285399,
        "Mean Anomaly(deg)": 16.99043120355673,
        "RAAN(deg)": 234.9994812299225,
        "Satellite Name": "Starlink Shell 1 1035",
        "Satellite Number": 1035,
        "Semi-Major Axis(m)": 6931778.249405717,
        "Time(s)": 10
    },
    {
        "Altitude(m)": 553492.2598887086,
        "Argument of Periapsis(deg)": 0.0006971569590224737,
        "Eccentricity": 0.0,
        "Inclination(deg)": 53.0,
        "Latitude(deg)": 13.995641418200698,
        "Longitude(deg)": 145.7117527874231,
        "Mean Anomaly(deg)": 17.61726240711343,
        "RAAN(deg)": 234.99896245984505,
        "Satellite Name": "Starlink Shell 1 1035",
        "Satellite Number": 1035,
        "Semi-Major Axis(m)": 6931778.249405717,
        "Time(s)": 20
    },
    {
        "Altitude(m)": 553504.5486554346,
        "Argument of Periapsis(deg)": 0.0010457354385337105,
        "Eccentricity": 0.0,
        "Inclination(deg)": 53.0,
        "Latitude(deg)": 14.490259109215136,
        "Longitude(deg)": 146.0713614430529,
        "Mean Anomaly(deg)": 18.244093610670173,
        "RAAN(deg)": 234.99844368976756,
        "Satellite Name": "Starlink Shell 1 1035",
        "Satellite Number": 1035,
        "Semi-Major Axis(m)": 6931778.249405717,
        "Time(s)": 30
    },
    {
        "Altitude(m)": 553519.3138718763,
        "Argument of Periapsis(deg)": 0.0013943139180449475,
        "Eccentricity": 0.0,
        "Inclination(deg)": 53.0,
        "Latitude(deg)": 14.98417329912238,
        "Longitude(deg)": 146.4327520733495,
        "Mean Anomaly(deg)": 18.870924814226818,
        "RAAN(deg)": 234.99792491969006,
        "Satellite Name": "Starlink Shell 1 1035",
        "Satellite Number": 1035,
        "Semi-Major Axis(m)": 6931778.249405717,
        "Time(s)": 40
    },
    {
        "Altitude(m)": 553536.5259390405,
        "Argument of Periapsis(deg)": 0.0017428923975561844,
        "Eccentricity": 0.0,
        "Inclination(deg)": 53.0,
        "Latitude(deg)": 15.47735555868018,
        "Longitude(deg)": 146.79599351180758,
        "Mean Anomaly(deg)": 19.497756017783566,
        "RAAN(deg)": 234.99740614961266,
        "Satellite Name": "Starlink Shell 1 1035",
        "Satellite Number": 1035,
        "Semi-Major Axis(m)": 6931778.249405717,
        "Time(s)": 50
    },
    {
        "Altitude(m)": 553556.1541596026,
        "Argument of Periapsis(deg)": 0.002091470877067421,
        "Eccentricity": 0.0,
        "Inclination(deg)": 53.0,
        "Latitude(deg)": 15.969777052832757,
        "Longitude(deg)": 147.16115537876627,
        "Mean Anomaly(deg)": 20.124587221340313,
        "RAAN(deg)": 234.99688737953514,
        "Satellite Name": "Starlink Shell 1 1035",
        "Satellite Number": 1035,
        "Semi-Major Axis(m)": 6931778.249405717,
        "Time(s)": 60
    },
    {
        "Altitude(m)": 553578.166755798,
        "Argument of Periapsis(deg)": 0.0024400493565786582,
        "Eccentricity": 0.0,
        "Inclination(deg)": 53.0,
        "Latitude(deg)": 16.46140852356002,
        "Longitude(deg)": 147.52830861264417,
        "Mean Anomaly(deg)": 20.751418424897007,
        "RAAN(deg)": 234.99636860945765,
        "Satellite Name": "Starlink Shell 1 1035",
        "Satellite Number": 1035,
        "Semi-Major Axis(m)": 6931778.249405717,
        "Time(s)": 70
    },
    {
        "Altitude(m)": 553602.5308878442,
        "Argument of Periapsis(deg)": 0.002788627836089895,
        "Eccentricity": 0.0,
        "Inclination(deg)": 53.0,
        "Latitude(deg)": 16.95222027235671,
        "Longitude(deg)": 147.89752448823944,
        "Mean Anomaly(deg)": 21.378249628453755,
        "RAAN(deg)": 234.99584983938024,
        "Satellite Name": "Starlink Shell 1 1035",
        "Satellite Number": 1035,
        "Semi-Major Axis(m)": 6931778.249405717,
        "Time(s)": 80
    },
    {
        "Altitude(m)": 553629.2126728712,
        "Argument of Periapsis(deg)": 0.0031372063156011316,
        "Eccentricity": 0.0,
        "Inclination(deg)": 53.0,
        "Latitude(deg)": 17.4421821423248,
        "Longitude(deg)": 148.26887514781245,
        "Mean Anomaly(deg)": 22.0050808320104,
        "RAAN(deg)": 234.99533106930275,
        "Satellite Name": "Starlink Shell 1 1035",
        "Satellite Number": 1035,
        "Semi-Major Axis(m)": 6931778.249405717,
        "Time(s)": 90
    },
    {
        "Altitude(m)": 553658.1772043573,
        "Argument of Periapsis(deg)": 0.0034857847951123688,
        "Eccentricity": 0.0,
        "Inclination(deg)": 53.0,
        "Latitude(deg)": 17.931263499869278,
        "Longitude(deg)": 148.64243413204863,
        "Mean Anomaly(deg)": 22.631912035567147,
        "RAAN(deg)": 234.99481229922526,
        "Satellite Name": "Starlink Shell 1 1035",
        "Satellite Number": 1035,
        "Semi-Major Axis(m)": 6931778.249405717,
        "Time(s)": 100
    },
    {
        "Altitude(m)": 553689.3885720455,
        "Argument of Periapsis(deg)": 0.003834363274623606,
        "Eccentricity": 0.0,
        "Inclination(deg)": 53.0,
        "Latitude(deg)": 18.419433215986988,
        "Longitude(deg)": 149.01827539798722,
        "Mean Anomaly(deg)": 23.25874323912389,
        "RAAN(deg)": 234.9942935291478,
        "Satellite Name": "Starlink Shell 1 1035",
        "Satellite Number": 1035,
        "Semi-Major Axis(m)": 6931778.249405717,
        "Time(s)": 110
    },
    {
        "Altitude(m)": 553722.8098823241,
        "Argument of Periapsis(deg)": 0.004182941754134842,
        "Eccentricity": 0.0,
        "Inclination(deg)": 53.0,
        "Latitude(deg)": 18.906659647132866,
        "Longitude(deg)": 149.3964738496278,
        "Mean Anomaly(deg)": 23.88557444268059,
        "RAAN(deg)": 234.9937747590703,
        "Satellite Name": "Starlink Shell 1 1035",
        "Satellite Number": 1035,
        "Semi-Major Axis(m)": 6931778.249405717,
        "Time(s)": 120
    },
    {
        "Altitude(m)": 553758.4032791014,
        "Argument of Periapsis(deg)": 0.004531520233646079,
        "Eccentricity": 0.0,
        "Inclination(deg)": 53.0,
        "Latitude(deg)": 19.39291061565339,
        "Longitude(deg)": 149.77710586829448,
        "Mean Anomaly(deg)": 24.512405646237283,
        "RAAN(deg)": 234.99325598899284,
        "Satellite Name": "Starlink Shell 1 1035",
        "Satellite Number": 1035,
        "Semi-Major Axis(m)": 6931778.249405717,
        "Time(s)": 130
    },
    {
        "Altitude(m)": 553796.1299651182,
        "Argument of Periapsis(deg)": 0.0048800987131573164,
        "Eccentricity": 0.0,
        "Inclination(deg)": 53.0,
        "Latitude(deg)": 19.878153389778813,
        "Longitude(deg)": 150.16024832983678,
        "Mean Anomaly(deg)": 25.13923684979398,
        "RAAN(deg)": 234.99273721891538,
        "Satellite Name": "Starlink Shell 1 1035",
        "Satellite Number": 1035,
        "Semi-Major Axis(m)": 6931778.249405717,
        "Time(s)": 140
    },
    {
        "Altitude(m)": 553835.9502236925,
        "Argument of Periapsis(deg)": 0.005228677192668553,
        "Eccentricity": 0.0,
        "Inclination(deg)": 53.0,
        "Latitude(deg)": 20.362354663157987,
        "Longitude(deg)": 150.54597913436007,
        "Mean Anomaly(deg)": 25.76606805335073,
        "RAAN(deg)": 234.9922184488379,
        "Satellite Name": "Starlink Shell 1 1035",
        "Satellite Number": 1035,
        "Semi-Major Axis(m)": 6931778.249405717,
        "Time(s)": 150
    },
    {
        "Altitude(m)": 553877.8234409204,
        "Argument of Periapsis(deg)": 0.00557725567217979,
        "Eccentricity": 0.0,
        "Inclination(deg)": 53.0,
        "Latitude(deg)": 20.845480533927855,
        "Longitude(deg)": 150.93437773555533,
        "Mean Anomaly(deg)": 26.39289925690747,
        "RAAN(deg)": 234.9916996787604,
        "Satellite Name": "Starlink Shell 1 1035",
        "Satellite Number": 1035,
        "Semi-Major Axis(m)": 6931778.249405717,
        "Time(s)": 160
    },
    {
        "Altitude(m)": 553921.7081282756,
        "Argument of Periapsis(deg)": 0.0059258341516910265,
        "Eccentricity": 0.0,
        "Inclination(deg)": 53.0,
        "Latitude(deg)": 21.327496483309616,
        "Longitude(deg)": 151.32552415668837,
        "Mean Anomaly(deg)": 27.01973046046417,
        "RAAN(deg)": 234.991180908683,
        "Satellite Name": "Starlink Shell 1 1035",
        "Satellite Number": 1035,
        "Semi-Major Axis(m)": 6931778.249405717,
        "Time(s)": 170
    },
    {
        "Altitude(m)": 553967.561945619,
        "Argument of Periapsis(deg)": 0.006274412631202263,
        "Eccentricity": 0.0,
        "Inclination(deg)": 53.0,
        "Latitude(deg)": 21.808367353717323,
        "Longitude(deg)": 151.719499518927,
        "Mean Anomaly(deg)": 27.64656166402086,
        "RAAN(deg)": 234.99066213860547,
        "Satellite Name": "Starlink Shell 1 1035",
        "Satellite Number": 1035,
        "Semi-Major Axis(m)": 6931778.249405717,
        "Time(s)": 180
    }
]